NORAD_CAT_ID,OBJECT_NAME,OBJECT_TYPE,EPOCH,MEAN_MOTION,ECCENTRICITY,INCLINATION,RA_OF_ASC_NODE,ARG_OF_PERICENTER,MEAN_ANOMALY,BSTAR,MEAN_MOTION_DOT,MEAN_MOTION_DDOT,TLE_LINE0,TLE_LINE1,TLE_LINE2,SEMIMAJOR_AXIS,PERIOD,APOGEE,PERIGEE,DECAYED
52988.0,STARLINK-4291,PAYLOAD,2022-08-01 14:00:01,15.73236267,0.000243,53.2184,255.7007,20.3063,195.6229,-0.00019002,-0.00027249,0.0,0 STARLINK-4291,1 52988U 22076C   22213.58334491 -.00027249  00000-0 -19002-3 0  9997,2 52988  53.2184 255.7007 0002430  20.3063 195.6229 15.73236267  1306,6727.792,91.531,351.292,348.022,0.0
52988.0,STARLINK-4291,PAYLOAD,2022-08-01 20:00:01,15.73202456,0.0002345,53.2187,254.4618,24.126,168.5266,-4.9473e-05,-7.56e-05,0.0,0 STARLINK-4291,1 52988U 22076C   22213.83334491 -.00007560  00000-0 -49473-4 0  9995,2 52988  53.2187 254.4618 0002345  24.1260 168.5266 15.73202456  4473,6727.888000000001,91.533,351.331,348.175,0.0
52988.0,STARLINK-4291,PAYLOAD,2022-08-01 22:00:00,15.73178194,0.0002295,53.2188,254.049,25.7544,279.1377,0.00034955,0.00048679,0.0,0 STARLINK-4291,1 52988U 22076C   22213.91667824  .00048679  00000-0  34955-3 0  9995,2 52988  53.2188 254.0490 0002295  25.7544 279.1377 15.73178194  1306,6727.956999999999,91.534,351.366,348.278,0.0
52988.0,STARLINK-4291,PAYLOAD,2022-08-02 06:00:02,15.73261349,0.0002379,53.219,252.4001,25.4239,8.4528,-0.00059237,-0.0008317,0.0,0 STARLINK-4291,1 52988U 22076C   22214.25002315 -.00083170  00000-0 -59237-3 0  9998,2 52988  53.2190 252.4001 0002379  25.4239   8.4528 15.73261349  4545,6727.72,91.53,351.186,347.985,0.0
52988.0,STARLINK-4291,PAYLOAD,2022-08-02 14:00:01,15.73160776,0.0002531,53.2187,250.752,20.7265,102.0529,0.00033139,0.00046069,0.0,0 STARLINK-4291,1 52988U 22076C   22214.58334491  .00046069  00000-0  33139-3 0  9994,2 52988  53.2187 250.7520 0002531  20.7265 102.0529 15.73160776  1300,6728.007,91.535,351.575,348.1690000000001,0.0
52988.0,STARLINK-4291,PAYLOAD,2022-08-03 12:00:00,15.73220253,0.0002533,53.2189,246.2164,20.8603,256.4578,3.2517e-05,3.948e-05,0.0,0 STARLINK-4291,1 52988U 22076C   22215.50001157  .00003948  00000-0  32517-4 0  9996,2 52988  53.2189 246.2164 0002533  20.8603 256.4578 15.73220253  4741,6727.837,91.532,351.407,347.99800000000016,0.0
52988.0,STARLINK-4291,PAYLOAD,2022-08-03 14:00:01,15.73237222,0.0002552,53.2186,245.8038,19.0327,10.52,-0.00027085,-0.00038527,0.0,0 STARLINK-4291,1 52988U 22076C   22215.58334491 -.00038527  00000-0 -27085-3 0  9990,2 52988  53.2186 245.8038 0002552  19.0327  10.5200 15.73237222  1301,6727.7890000000025,91.531,351.371,347.93699999999984,0.0
52988.0,STARLINK-4291,PAYLOAD,2022-08-03 22:00:01,15.73166652,0.0002254999999999,53.2191,244.1521,18.7649,99.8289,0.00047186,0.00066033,0.0,0 STARLINK-4291,1 52988U 22076C   22215.91668981  .00066033  00000-0  47186-3 0  9996,2 52988  53.2191 244.1521 0002255  18.7649  99.8289 15.73166652  1304,6727.99,91.535,351.372,348.338,0.0
52988.0,STARLINK-4291,PAYLOAD,2022-08-04 12:00:00,15.7318634,0.000212,53.2178,241.2552,20.3488,163.6794,0.00023352,0.00032261,0.0,0 STARLINK-4291,1 52988U 22076C   22216.50001157  .00032261  00000-0  23352-3 0  9993,2 52988  53.2178 241.2552 0002120  20.3488 163.6794 15.73186340  4896,6727.934,91.534,351.225,348.37300000000016,0.0
52988.0,STARLINK-4291,PAYLOAD,2022-08-04 14:00:01,15.7320611,0.0002075,53.2173,240.8416,17.0461,279.2081,-7.7003e-06,-1.702e-05,0.0,0 STARLINK-4291,1 52988U 22076C   22216.58334491 -.00001702  00000-0 -77003-5 0  9993,2 52988  53.2173 240.8416 0002075  17.0461 279.2081 15.73206110  1302,6727.878000000002,91.533,351.139,348.347,0.0
52988.0,STARLINK-4291,PAYLOAD,2022-08-04 20:00:01,15.73182287,0.0002349,53.2194,239.6166,15.729,257.3855,0.00010204,0.00013713,0.0,0 STARLINK-4291,1 52988U 22076C   22216.83334491  .00013713  00000-0  10204-3 0  9992,2 52988  53.2194 239.6166 0002349  15.7290 257.3855 15.73182287  4950,6727.946,91.534,351.391,348.23,0.0
52988.0,STARLINK-4291,PAYLOAD,2022-08-04 22:00:00,15.73157546,0.0002285,53.2192,239.2038,16.0191,9.332,0.00050914,0.00071317,0.0,0 STARLINK-4291,1 52988U 22076C   22216.91667824  .00071317  00000-0  50914-3 0  9996,2 52988  53.2192 239.2038 0002285  16.0191   9.3320 15.73157546  1303,6728.016,91.536,351.4190000000001,348.344,0.0
52988.0,STARLINK-4291,PAYLOAD,2022-08-05 14:00:01,15.73198878,0.0002631999999999,53.2188,235.9072,19.7346,183.5493,-0.00010941,-0.0001595,0.0,0 STARLINK-4291,1 52988U 22076C   22217.58335648 -.00015950  00000-0 -10941-3 0  9995,2 52988  53.2188 235.9072 0002632  19.7346 183.5493 15.73198878  1306,6727.898,91.533,351.534,347.99300000000005,0.0
52988.0,STARLINK-4291,PAYLOAD,2022-08-05 20:00:01,15.73173171,0.0002468,53.2194,234.6684,23.213,156.7702,0.00033407,0.00046474,0.0,0 STARLINK-4291,1 52988U 22076C   22217.83335648  .00046474  00000-0  33407-3 0  9998,2 52988  53.2194 234.6684 0002468  23.2130 156.7702 15.73173171  5102,6727.972,91.535,351.497,348.176,0.0
52988.0,STARLINK-4291,PAYLOAD,2022-08-05 22:00:00,15.73163561,0.0002440999999999,53.2187,234.2558,24.3459,267.8034,0.00057932,0.00081353,0.0,0 STARLINK-4291,1 52988U 22076C   22217.91667824  .00081353  00000-0  57932-3 0  9995,2 52988  53.2187 234.2558 0002441  24.3459 267.8034 15.73163561  1309,6727.999,91.535,351.506,348.222,0.0
52988.0,STARLINK-4291,PAYLOAD,2022-08-06 12:00:00,15.73205672,0.0002706,53.2175,231.3717,20.7324,337.0543,-0.00015648,-0.00022534,0.0,0 STARLINK-4291,1 52988U 22076C   22218.50001157 -.00022534  00000-0 -15648-3 0  9998,2 52988  53.2175 231.3717 0002706  20.7324 337.0543 15.73205672  5215,6727.879,91.533,351.565,347.923,0.0
52988.0,STARLINK-4291,PAYLOAD,2022-08-06 14:00:01,15.73196724,0.0002683,53.2173,230.9589,19.9984,90.0259,-0.0001262999999999,-0.0001831,0.0,0 STARLINK-4291,1 52988U 22076C   22218.58334491 -.00018310  00000-0 -12630-3 0  9991,2 52988  53.2173 230.9589 0002683  19.9984  90.0259 15.73196724  1304,6727.905,91.533,351.575,347.964,0.0
52988.0,STARLINK-4291,PAYLOAD,2022-08-06 22:00:00,15.73184691,0.0002423,53.2171,229.3077,23.1551,175.7967,0.0003126999999999,0.00043467,0.0,0 STARLINK-4291,1 52988U 22076C   22218.91667824  .00043467  00000-0  31270-3 0  9997,2 52988  53.2171 229.3077 0002423  23.1551 175.7967 15.73184691  1302,6727.939,91.534,351.434,348.1740000000001,0.0
52988.0,STARLINK-4291,PAYLOAD,2022-08-07 12:00:00,15.73144513,0.0002799,53.2168,226.4238,25.6084,238.9449,0.00051813,0.00072562,0.0,0 STARLINK-4291,1 52988U 22076C   22219.50001157  .00072562  00000-0  51813-3 0  9997,2 52988  53.2168 226.4238 0002799  25.6084 238.9449 15.73144513  5376,6728.053000000001,91.536,351.802,348.035,0.0
52988.0,STARLINK-4291,PAYLOAD,2022-08-07 14:00:01,15.73176083,0.000279,53.2166,226.011,26.0238,350.7422,0.0001626999999999,0.00022252,0.0,0 STARLINK-4291,1 52988U 22076C   22219.58334491  .00022252  00000-0  16270-3 0  9994,2 52988  53.2166 226.0110 0002790  26.0238 350.7422 15.73176083  1306,6727.9630000000025,91.535,351.705,347.951,0.0
52988.0,STARLINK-4291,PAYLOAD,2022-08-07 22:00:00,15.73180797,0.0002546999999999,53.2168,224.3596,30.3113,75.3813,0.00058839,0.00082712,0.0,0 STARLINK-4291,1 52988U 22076C   22219.91667824  .00082712  00000-0  58839-3 0  9994,2 52988  53.2168 224.3596 0002547  30.3113  75.3813 15.73180797  1308,6727.95,91.534,351.529,348.101,0.0
52988.0,STARLINK-4291,PAYLOAD,2022-08-08 12:00:00,15.73259817,0.000273,53.2166,221.4752,25.0406,146.3738,3.9262e-05,4.905e-05,0.0,0 STARLINK-4291,1 52988U 22076C   22220.50001157  .00004905  00000-0  39262-4 0  9990,2 52988  53.2166 221.4752 0002730  25.0406 146.3738 15.73259817  5521,6727.725,91.53,351.426,347.75300000000016,0.0
52988.0,STARLINK-4291,PAYLOAD,2022-08-08 14:00:01,15.73281237,0.000266,53.2166,221.0621,24.0967,259.6299,-0.00037013,-0.00052435,0.0,0 STARLINK-4291,1 52988U 22076C   22220.58335648 -.00052435  00000-0 -37013-3 0  9997,2 52988  53.2166 221.0621 0002660  24.0967 259.6299 15.73281237  1308,6727.6640000000025,91.528,351.3180000000001,347.73900000000015,0.0
52988.0,STARLINK-4291,PAYLOAD,2022-08-08 17:22:23,15.73282082,0.0002683999999999,53.2171,220.364,31.822,328.2962,0.00030035,0.00041895,0.0,0 STARLINK-4291,1 52988U 22076C   22220.72388797  .00041895  00000-0  30035-3 0  9999,2 52988  53.2171 220.3640 0002684  31.8220 328.2962 15.73282082  5562,6727.661,91.528,351.332,347.72,0.0
52988.0,STARLINK-4291,PAYLOAD,2022-08-08 22:00:00,15.73228674,0.000241,53.2165,219.4109,25.1477,347.5288,1.2504e-05,1.135e-05,0.0,0 STARLINK-4291,1 52988U 22076C   22220.91667824  .00001135  00000-0  12504-4 0  9996,2 52988  53.2165 219.4109 0002410  25.1477 347.5288 15.73228674  1301,6727.813,91.532,351.3,348.057,0.0
52988.0,STARLINK-4291,PAYLOAD,2022-08-09 04:00:00,15.73246462,0.0002491,53.2164,218.1752,23.4649,325.9206,-0.0008787,-0.0012243,0.0,0 STARLINK-4291,1 52988U 22076C   22221.16667824 -.00122430  00000-0 -87870-3 0  9995,2 52988  53.2164 218.1752 0002491  23.4649 325.9206 15.73246462  5636,6727.763000000001,91.53,351.30400000000014,347.952,0.0
52988.0,STARLINK-4291,PAYLOAD,2022-08-09 14:00:01,15.73133705,0.000252,53.2158,216.1138,17.8987,172.6297,-0.00012433,-0.00017986,0.0,0 STARLINK-4291,1 52988U 22076C   22221.58334491 -.00017986  00000-0 -12433-3 0  9994,2 52988  53.2158 216.1138 0002520  17.8987 172.6297 15.73133705  1302,6728.084,91.537,351.645,348.254,0.0
52988.0,STARLINK-4291,PAYLOAD,2022-08-09 20:00:01,15.73091254,0.0002293,53.216,214.8753,18.3589,148.8017,0.00065011,0.00091193,0.0,0 STARLINK-4291,1 52988U 22076C   22221.83334491  .00091193  00000-0  65011-3 0  9992,2 52988  53.2160 214.8753 0002293  18.3589 148.8017 15.73091254  5732,6728.205,91.54,351.61300000000006,348.527,0.0
52988.0,STARLINK-4291,PAYLOAD,2022-08-09 22:00:00,15.73104119,0.0002294,53.2161,214.4627,20.147,259.2173,0.00064706,0.00090808,0.0,0 STARLINK-4291,1 52988U 22076C   22221.91667824  .00090808  00000-0  64706-3 0  9992,2 52988  53.2161 214.4627 0002294  20.1470 259.2173 15.73104119  1304,6728.169,91.539,351.577,348.49,0.0
